ONEWEB-0327             
1 49196U 21083L   23288.20485485  .00000076  00000+0  16131-3 0  9999
2 49196  87.9270 169.5892 0001754  93.2452 266.8881 13.18683514102671
ONEWEB-0328             
1 49197U 21083M   23287.92990403  .00000661  00000+0  17760-2 0  9997
2 49197  87.9032 154.4982 0001845  95.2069 264.9270 13.13468169102749
ONEWEB-0331             
1 49198U 21083N   23288.14898147  .00000142  00000+0  32856-3 0  9993
2 49198  87.9207 169.6120 0001609  82.4594 277.6721 13.18684792102654
ONEWEB-0333             
1 49199U 21083P   23288.38167778  .00000301  00000+0  78888-3 0  9991
2 49199  87.9031 154.4112 0001813  71.4658 288.6668 13.13472259104101
ONEWEB-0334             
1 49200U 21083Q   23288.51503061  .00000091  00000+0  19092-3 0  9996
2 49200  87.9146 108.7355 0002438  73.8085 286.3317 13.20772962109299
ONEWEB-0335             
1 49201U 21083R   23288.37745868  .00000181  00000+0  45970-3 0  9998
2 49201  87.9029 154.4010 0001482  75.3395 284.7899 13.13470285104113
ONEWEB-0336             
1 49202U 21083S   23288.34570828 -.00000131  00000+0 -39231-3 0  9998
2 49202  87.9032 154.4051 0001757  74.7080 285.4243 13.13471322104116
ONEWEB-0337             
1 49203U 21083T   23287.89710321 -.00000286  00000+0 -81737-3 0  9991
2 49203  87.9030 154.4922 0001432  77.4697 282.6592 13.13468092104055
